[Satellite]
VERSION=1.1
NAME=AISSAT 1
NICKNAME=AISSAT 1
TLE1=1 36797U 10035C   17186.29847839  .00000128  00000-0  21215-4 0  9990
TLE2=2 36797  98.0420 300.3572 0009947 300.9510  59.0727 14.85853127377869
